LEGION 1                
1 59625U 24081A   24152.52849076  .00010491  00000+0  54185-3 0  9997
2 59625  97.5764 223.6207 0004893  80.7383 279.4403 15.16479465  4351
